[{"OBJECT_NAME":"GUANGCHUAN 01","OBJECT_ID":"2024-221A","EPOCH":"2026-03-09T23:52:27.422976","MEAN_MOTION":15.16881016,"ECCENTRICITY":0.00068686,"INCLINATION":49.9429,"RA_OF_ASC_NODE":284.8759,"ARG_OF_PERICENTER":260.2955,"MEAN_ANOMALY":99.7221,"EPHEMERIS_TYPE":0,"CLASSIFICATION_TYPE":"U","NORAD_CAT_ID":62111,"ELEMENT_SET_NO":999,"REV_AT_EPOCH":7115,"BSTAR":0.00030732874,"MEAN_MOTION_DOT":5.834e-5,"MEAN_MOTION_DDOT":0},{"OBJECT_NAME":"CONNECTA IOT-15","OBJECT_ID":"2026-004AR","EPOCH":"2026-03-09T22:41:01.256352","MEAN_MOTION":15.16609971,"ECCENTRICITY":0.00018664,"INCLINATION":97.4573,"RA_OF_ASC_NODE":69.3558,"ARG_OF_PERICENTER":342.2914,"MEAN_ANOMALY":17.8254,"EPHEMERIS_TYPE":0,"CLASSIFICATION_TYPE":"U","NORAD_CAT_ID":67402,"ELEMENT_SET_NO":999,"REV_AT_EPOCH":868,"BSTAR":0.00024313202,"MEAN_MOTION_DOT":4.685e-5,"MEAN_MOTION_DDOT":0}]
